[{"OBJECT_NAME":"TIANMU-1 07","OBJECT_ID":"2023-101A","EPOCH":"2026-03-06T13:47:20.454720","MEAN_MOTION":15.29118809,"ECCENTRICITY":0.00046097,"INCLINATION":97.2728,"RA_OF_ASC_NODE":118.5929,"ARG_OF_PERICENTER":142.4105,"MEAN_ANOMALY":217.7458,"EPHEMERIS_TYPE":0,"CLASSIFICATION_TYPE":"U","NORAD_CAT_ID":57399,"ELEMENT_SET_NO":999,"REV_AT_EPOCH":14596,"BSTAR":0.00029794732,"MEAN_MOTION_DOT":8.352e-5,"MEAN_MOTION_DDOT":0},{"OBJECT_NAME":"STARLINK-36485","OBJECT_ID":"2026-002H","EPOCH":"2026-03-09T00:55:00.477408","MEAN_MOTION":15.27581687,"ECCENTRICITY":0.00018137,"INCLINATION":43.002,"RA_OF_ASC_NODE":328.5703,"ARG_OF_PERICENTER":280.2114,"MEAN_ANOMALY":79.8533,"EPHEMERIS_TYPE":0,"CLASSIFICATION_TYPE":"U","NORAD_CAT_ID":67312,"ELEMENT_SET_NO":999,"REV_AT_EPOCH":1098,"BSTAR":0.0017153187,"MEAN_MOTION_DOT":0.00047246,"MEAN_MOTION_DDOT":0}]
